[{"OBJECT_NAME":"IRIDIUM 33 DEB","OBJECT_ID":"1997-051MQ","EPOCH":"2026-03-28T11:02:18.415104","MEAN_MOTION":14.78795731,"ECCENTRICITY":0.00165557,"INCLINATION":86.3049,"RA_OF_ASC_NODE":265.5555,"ARG_OF_PERICENTER":178.4729,"MEAN_ANOMALY":211.1933,"EPHEMERIS_TYPE":0,"CLASSIFICATION_TYPE":"U","NORAD_CAT_ID":34870,"ELEMENT_SET_NO":999,"REV_AT_EPOCH":90472,"BSTAR":0.0015172276,"MEAN_MOTION_DOT":0.00011208,"MEAN_MOTION_DDOT":0},{"OBJECT_NAME":"IRIDIUM 33 DEB","OBJECT_ID":"1997-051MY","EPOCH":"2026-03-28T07:52:10.130592","MEAN_MOTION":14.67444458,"ECCENTRICITY":0.0024402,"INCLINATION":86.3238,"RA_OF_ASC_NODE":279.2819,"ARG_OF_PERICENTER":212.5116,"MEAN_ANOMALY":266.5254,"EPHEMERIS_TYPE":0,"CLASSIFICATION_TYPE":"U","NORAD_CAT_ID":34896,"ELEMENT_SET_NO":999,"REV_AT_EPOCH":89167,"BSTAR":0.0008456,"MEAN_MOTION_DOT":4.828e-5,"MEAN_MOTION_DDOT":0},{"OBJECT_NAME":"IRIDIUM 33 DEB","OBJECT_ID":"1997-051NF","EPOCH":"2026-03-28T15:43:43.702752","MEAN_MOTION":14.59905042,"ECCENTRICITY":0.0073191,"INCLINATION":86.1341,"RA_OF_ASC_NODE":318.9492,"ARG_OF_PERICENTER":298.7805,"MEAN_ANOMALY":115.194,"EPHEMERIS_TYPE":0,"CLASSIFICATION_TYPE":"U","NORAD_CAT_ID":34926,"ELEMENT_SET_NO":999,"REV_AT_EPOCH":87999,"BSTAR":0.0038784,"MEAN_MOTION_DOT":0.00019333,"MEAN_MOTION_DDOT":0},{"OBJECT_NAME":"IRIDIUM 33 DEB","OBJECT_ID":"1997-051NR","EPOCH":"2026-03-28T18:03:42.898176","MEAN_MOTION":14.42557469,"ECCENTRICITY":0.0019049,"INCLINATION":86.375,"RA_OF_ASC_NODE":11.6352,"ARG_OF_PERICENTER":232.2525,"MEAN_ANOMALY":156.8917,"EPHEMERIS_TYPE":0,"CLASSIFICATION_TYPE":"U","NORAD_CAT_ID":34985,"ELEMENT_SET_NO":999,"REV_AT_EPOCH":88703,"BSTAR":0.00064128,"MEAN_MOTION_DOT":2.15e-5,"MEAN_MOTION_DDOT":0},{"OBJECT_NAME":"IRIDIUM 33 DEB","OBJECT_ID":"1997-051NX","EPOCH":"2026-03-28T21:37:20.912736","MEAN_MOTION":14.4818649,"ECCENTRICITY":0.00103458,"INCLINATION":86.324,"RA_OF_ASC_NODE":322.5926,"ARG_OF_PERICENTER":92.2404,"MEAN_ANOMALY":267.9984,"EPHEMERIS_TYPE":0,"CLASSIFICATION_TYPE":"U","NORAD_CAT_ID":35051,"ELEMENT_SET_NO":999,"REV_AT_EPOCH":88532,"BSTAR":0.00053411594,"MEAN_MOTION_DOT":2.011e-5,"MEAN_MOTION_DDOT":0},{"OBJECT_NAME":"IRIDIUM 33 DEB","OBJECT_ID":"1997-051NY","EPOCH":"2026-03-27T09:42:08.305056","MEAN_MOTION":14.38648021,"ECCENTRICITY":0.0013619,"INCLINATION":86.334,"RA_OF_ASC_NODE":335.6274,"ARG_OF_PERICENTER":97.5976,"MEAN_ANOMALY":262.6769,"EPHEMERIS_TYPE":0,"CLASSIFICATION_TYPE":"U","NORAD_CAT_ID":35052,"ELEMENT_SET_NO":999,"REV_AT_EPOCH":88780,"BSTAR":0.0001592,"MEAN_MOTION_DOT":5.08e-6,"MEAN_MOTION_DDOT":0},{"OBJECT_NAME":"IRIDIUM 33 DEB","OBJECT_ID":"1997-051PF","EPOCH":"2026-03-28T00:58:07.217184","MEAN_MOTION":15.08052716,"ECCENTRICITY":0.00365031,"INCLINATION":86.2123,"RA_OF_ASC_NODE":1.282,"ARG_OF_PERICENTER":143.0814,"MEAN_ANOMALY":217.2946,"EPHEMERIS_TYPE":0,"CLASSIFICATION_TYPE":"U","NORAD_CAT_ID":35080,"ELEMENT_SET_NO":999,"REV_AT_EPOCH":71262,"BSTAR":0.0062189838,"MEAN_MOTION_DOT":0.00098428,"MEAN_MOTION_DDOT":0},{"OBJECT_NAME":"IRIDIUM 33 DEB","OBJECT_ID":"1997-051PM","EPOCH":"2026-03-27T13:10:51.743136","MEAN_MOTION":14.4569243,"ECCENTRICITY":0.0016298,"INCLINATION":86.3906,"RA_OF_ASC_NODE":18.0013,"ARG_OF_PERICENTER":148.0584,"MEAN_ANOMALY":212.161,"EPHEMERIS_TYPE":0,"CLASSIFICATION_TYPE":"U","NORAD_CAT_ID":35297,"ELEMENT_SET_NO":999,"REV_AT_EPOCH":71940,"BSTAR":0.00052628,"MEAN_MOTION_DOT":1.884e-5,"MEAN_MOTION_DDOT":0},{"OBJECT_NAME":"IRIDIUM 33 DEB","OBJECT_ID":"1997-051PP","EPOCH":"2026-03-27T11:28:21.324576","MEAN_MOTION":14.41820076,"ECCENTRICITY":0.005696,"INCLINATION":86.2913,"RA_OF_ASC_NODE":347.5684,"ARG_OF_PERICENTER":114.5526,"MEAN_ANOMALY":64.7598,"EPHEMERIS_TYPE":0,"CLASSIFICATION_TYPE":"U","NORAD_CAT_ID":35299,"ELEMENT_SET_NO":999,"REV_AT_EPOCH":87839,"BSTAR":0.0010819,"MEAN_MOTION_DOT":3.624e-5,"MEAN_MOTION_DDOT":0},{"OBJECT_NAME":"IRIDIUM 33 DEB","OBJECT_ID":"1997-051QA","EPOCH":"2026-03-27T09:56:52.933056","MEAN_MOTION":14.50368436,"ECCENTRICITY":0.0015474,"INCLINATION":86.36,"RA_OF_ASC_NODE":339.5317,"ARG_OF_PERICENTER":110.1635,"MEAN_ANOMALY":250.1236,"EPHEMERIS_TYPE":0,"CLASSIFICATION_TYPE":"U","NORAD_CAT_ID":35480,"ELEMENT_SET_NO":999,"REV_AT_EPOCH":88548,"BSTAR":0.00048798,"MEAN_MOTION_DOT":1.927e-5,"MEAN_MOTION_DDOT":0},{"OBJECT_NAME":"IRIDIUM 33 DEB","OBJECT_ID":"1997-051QE","EPOCH":"2026-03-17T21:15:20.355264","MEAN_MOTION":15.08193596,"ECCENTRICITY":0.00148401,"INCLINATION":86.3507,"RA_OF_ASC_NODE":307.8846,"ARG_OF_PERICENTER":135.1901,"MEAN_ANOMALY":225.0537,"EPHEMERIS_TYPE":0,"CLASSIFICATION_TYPE":"U","NORAD_CAT_ID":35484,"ELEMENT_SET_NO":999,"REV_AT_EPOCH":63445,"BSTAR":0.0016373111,"MEAN_MOTION_DOT":0.0002546,"MEAN_MOTION_DDOT":0},{"OBJECT_NAME":"IRIDIUM 33 DEB","OBJECT_ID":"1997-051QJ","EPOCH":"2026-03-29T04:25:11.855136","MEAN_MOTION":14.8571762,"ECCENTRICITY":0.0025731,"INCLINATION":86.3205,"RA_OF_ASC_NODE":251.6758,"ARG_OF_PERICENTER":26.1038,"MEAN_ANOMALY":334.1477,"EPHEMERIS_TYPE":0,"CLASSIFICATION_TYPE":"U","NORAD_CAT_ID":35488,"ELEMENT_SET_NO":999,"REV_AT_EPOCH":89845,"BSTAR":0.001544,"MEAN_MOTION_DOT":0.00013514,"MEAN_MOTION_DDOT":0},{"OBJECT_NAME":"IRIDIUM 33 DEB","OBJECT_ID":"1997-051QN","EPOCH":"2026-03-29T00:22:46.214688","MEAN_MOTION":14.85229344,"ECCENTRICITY":0.0009431,"INCLINATION":86.3504,"RA_OF_ASC_NODE":297.1221,"ARG_OF_PERICENTER":153.6668,"MEAN_ANOMALY":206.5037,"EPHEMERIS_TYPE":0,"CLASSIFICATION_TYPE":"U","NORAD_CAT_ID":35616,"ELEMENT_SET_NO":999,"REV_AT_EPOCH":89150,"BSTAR":0.0015735,"MEAN_MOTION_DOT":0.00013539,"MEAN_MOTION_DDOT":0},{"OBJECT_NAME":"IRIDIUM 33 DEB","OBJECT_ID":"1997-051QQ","EPOCH":"2026-03-27T21:14:53.845152","MEAN_MOTION":14.52793612,"ECCENTRICITY":0.00295289,"INCLINATION":86.3372,"RA_OF_ASC_NODE":307.5216,"ARG_OF_PERICENTER":28.3396,"MEAN_ANOMALY":331.9409,"EPHEMERIS_TYPE":0,"CLASSIFICATION_TYPE":"U","NORAD_CAT_ID":35618,"ELEMENT_SET_NO":999,"REV_AT_EPOCH":66920,"BSTAR":0.00035220423,"MEAN_MOTION_DOT":1.476e-5,"MEAN_MOTION_DDOT":0},{"OBJECT_NAME":"IRIDIUM 33 DEB","OBJECT_ID":"1997-051QS","EPOCH":"2026-03-28T23:08:28.951008","MEAN_MOTION":14.40944349,"ECCENTRICITY":0.0131255,"INCLINATION":86.3901,"RA_OF_ASC_NODE":172.572,"ARG_OF_PERICENTER":266.0097,"MEAN_ANOMALY":92.609,"EPHEMERIS_TYPE":0,"CLASSIFICATION_TYPE":"U","NORAD_CAT_ID":35620,"ELEMENT_SET_NO":999,"REV_AT_EPOCH":61494,"BSTAR":0.0025918,"MEAN_MOTION_DOT":9.239e-5,"MEAN_MOTION_DDOT":0},{"OBJECT_NAME":"IRIDIUM 33 DEB","OBJECT_ID":"1997-051QU","EPOCH":"2026-03-29T02:16:58.438848","MEAN_MOTION":15.15935845,"ECCENTRICITY":0.0008384,"INCLINATION":86.1939,"RA_OF_ASC_NODE":210.6368,"ARG_OF_PERICENTER":225.1615,"MEAN_ANOMALY":313.3658,"EPHEMERIS_TYPE":0,"CLASSIFICATION_TYPE":"U","NORAD_CAT_ID":35622,"ELEMENT_SET_NO":999,"REV_AT_EPOCH":88965,"BSTAR":0.0026884,"MEAN_MOTION_DOT":0.00051881,"MEAN_MOTION_DDOT":0}]
